STARLINK-1543           
1 46053U 20055AC  26068.66670139  .00014443  00000+0  49937-3 0  9990
2 46053  53.1586 114.0187 0001413  89.7263 198.6794 15.30163255  5745
NUSAT-48 (HENRIETTA LE*)
1 60498U 24149AG  26068.80506098  .00012988  00000+0  45212-3 0  9999
2 60498  97.3923 150.8264 0002754 263.3026  96.7901 15.29812597 86946
