[{"OBJECT_NAME":"STARLINK-1543","OBJECT_ID":"2020-055AC","EPOCH":"2026-03-09T16:00:03.000096","MEAN_MOTION":15.30163255,"ECCENTRICITY":0.0001413,"INCLINATION":53.1586,"RA_OF_ASC_NODE":114.0187,"ARG_OF_PERICENTER":89.7263,"MEAN_ANOMALY":198.6794,"EPHEMERIS_TYPE":0,"CLASSIFICATION_TYPE":"U","NORAD_CAT_ID":46053,"ELEMENT_SET_NO":999,"REV_AT_EPOCH":574,"BSTAR":0.00049937,"MEAN_MOTION_DOT":0.00014443,"MEAN_MOTION_DDOT":0},{"OBJECT_NAME":"NUSAT-48 (HENRIETTA LEAVITT)","OBJECT_ID":"2024-149AG","EPOCH":"2026-03-09T19:19:17.269536","MEAN_MOTION":15.29812597,"ECCENTRICITY":0.00027538,"INCLINATION":97.3923,"RA_OF_ASC_NODE":150.8264,"ARG_OF_PERICENTER":263.3026,"MEAN_ANOMALY":96.7901,"EPHEMERIS_TYPE":0,"CLASSIFICATION_TYPE":"U","NORAD_CAT_ID":60498,"ELEMENT_SET_NO":999,"REV_AT_EPOCH":8694,"BSTAR":0.00045211745,"MEAN_MOTION_DOT":0.00012988,"MEAN_MOTION_DDOT":0}]
